NORAD_CAT_ID,OBJECT_NAME,OBJECT_TYPE,EPOCH,MEAN_MOTION,ECCENTRICITY,INCLINATION,RA_OF_ASC_NODE,ARG_OF_PERICENTER,MEAN_ANOMALY,BSTAR,MEAN_MOTION_DOT,MEAN_MOTION_DDOT,TLE_LINE0,TLE_LINE1,TLE_LINE2,SEMIMAJOR_AXIS,PERIOD,APOGEE,PERIGEE,DECAYED
52266.0,STARLINK-3739,PAYLOAD,2023-01-15 21:35:01,15.08844247,0.0001976999999999,53.2159,226.2474,48.1125,312.0035,0.00010829,1.436e-05,0.0,0 STARLINK-3739,1 52266U 22041F   23015.89932358  .00001436  00000-0  10829-3 0  9995,2 52266  53.2159 226.2474 0001977  48.1125 312.0035 15.08844247 40933,6917.866999999999,95.437,541.1,538.365,0.0
52266.0,STARLINK-3739,PAYLOAD,2023-01-16 13:28:53,15.0883191,0.0001827,53.2167,223.2731,54.2533,305.8629,9.1025e-05,1.161e-05,0.0,0 STARLINK-3739,1 52266U 22041F   23016.56173117  .00001161  00000-0  91025-4 0  9993,2 52266  53.2167 223.2731 0001827  54.2533 305.8629 15.08831910 41034,6917.905,95.438,541.034,538.506,0.0
52266.0,STARLINK-3739,PAYLOAD,2023-01-16 19:50:26,15.08833968,0.0001834,53.2167,222.0836,54.9492,305.1672,9.2362e-05,1.182e-05,0.0,0 STARLINK-3739,1 52266U 22041F   23016.82669017  .00001182  00000-0  92362-4 0  9999,2 52266  53.2167 222.0836 0001834  54.9492 305.1672 15.08833968 42291,6917.899,95.438,541.033,538.495,0.0
52266.0,STARLINK-3739,PAYLOAD,2023-01-17 08:33:30,15.08838253,0.0001891,53.2166,219.7053,57.2732,302.8443,7.473399999999999e-05,9.01e-06,0.0,0 STARLINK-3739,1 52266U 22041F   23017.35660841  .00000901  00000-0  74734-4 0  9995,2 52266  53.2166 219.7053 0001891  57.2732 302.8443 15.08838253 41156,6917.886,95.438,541.059,538.443,0.0
52266.0,STARLINK-3739,PAYLOAD,2023-01-17 19:41:12,15.08840467,0.0001899999999999,53.2166,217.6237,58.1581,301.9596,7.9085e-05,9.71e-06,0.0,0 STARLINK-3739,1 52266U 22041F   23017.82028752  .00000971  00000-0  79085-4 0  9997,2 52266  53.2166 217.6237 0001900  58.1581 301.9596 15.08840467 41227,6917.879,95.438,541.058,538.43,0.0
52266.0,STARLINK-3739,PAYLOAD,2023-01-17 22:51:58,15.08841903,0.0001657,53.2167,217.0286,62.6606,297.4554,7.0717e-05,8.38e-06,0.0,0 STARLINK-3739,1 52266U 22041F   23017.95276572  .00000838  00000-0  70717-4 0  9991,2 52266  53.2167 217.0286 0001657  62.6606 297.4554 15.08841903 42469,6917.875,95.437,540.886,538.5930000000001,0.0
52266.0,STARLINK-3739,PAYLOAD,2023-01-18 13:10:27,15.0883892,0.0001869,53.2166,214.3523,61.2687,298.8492,9.8814e-05,1.285e-05,0.0,0 STARLINK-3739,1 52266U 22041F   23018.54892764  .00001285  00000-0  98814-4 0  9999,2 52266  53.2166 214.3523 0001869  61.2687 298.8492 15.08838920 41337,6917.884,95.438,541.0419999999999,538.456,0.0
52266.0,STARLINK-3739,PAYLOAD,2023-01-18 19:31:59,15.08843596,0.0001874,53.2166,213.1628,61.8428,298.2754,0.00012982,1.779e-05,0.0,0 STARLINK-3739,1 52266U 22041F   23018.81388372  .00001779  00000-0  12982-3 0  9993,2 52266  53.2166 213.1628 0001874  61.8428 298.2754 15.08843596 41379,6917.869000000001,95.437,541.031,538.438,0.0
52266.0,STARLINK-3739,PAYLOAD,2023-01-19 13:01:14,15.0882315,0.0001513,53.2193,209.8902,62.268,297.8465,0.00024449,3.603e-05,0.0,0 STARLINK-3739,1 52266U 22041F   23019.54253346  .00003603  00000-0  24449-3 0  9995,2 52266  53.2193 209.8902 0001513  62.2680 297.8465 15.08823150 41481,6917.932,95.439,540.844,538.75,0.0
52266.0,STARLINK-3739,PAYLOAD,2023-01-19 19:22:47,15.08826369,0.0001523,53.2193,208.7003,65.1324,294.9826,0.00024469,3.607e-05,0.0,0 STARLINK-3739,1 52266U 22041F   23019.80749357  .00003607  00000-0  24469-3 0  9992,2 52266  53.2193 208.7003 0001523  65.1324 294.9826 15.08826369 42743,6917.922,95.438,540.841,538.7330000000001,0.0
52266.0,STARLINK-3739,PAYLOAD,2023-01-19 20:58:10,15.08839051,0.0001874,53.2161,208.4057,66.2086,293.9103,2.1145e-05,4.8e-07,0.0,0 STARLINK-3739,1 52266U 22041F   23019.87373056  .00000048  00000-0  21145-4 0  9993,2 52266  53.2161 208.4057 0001874  66.2086 293.9103 15.08839051 42750,6917.883000000001,95.438,541.045,538.452,0.0
52266.0,STARLINK-3739,PAYLOAD,2023-01-20 22:24:19,15.08846085,0.000174,53.2179,203.6471,64.2448,295.8723,7.5151e-05,9.08e-06,0.0,0 STARLINK-3739,1 52266U 22041F   23020.93356471  .00000908  00000-0  75151-4 0  9995,2 52266  53.2179 203.6471 0001740  64.2448 295.8723 15.08846085 42910,6917.861999999999,95.437,540.93,538.523,0.0
52266.0,STARLINK-3739,PAYLOAD,2023-01-21 04:45:54,15.08804051,0.0002109,53.2177,202.4574,60.0588,300.0613,0.00052902,8.133e-05,0.0,0 STARLINK-3739,1 52266U 22041F   23021.19854383  .00008133  00000-0  52902-3 0  9995,2 52266  53.2177 202.4574 0002109  60.0588 300.0613 15.08804051 42956,6917.99,95.44,541.314,538.396,0.0
52266.0,STARLINK-3739,PAYLOAD,2023-01-21 15:53:35,15.08835596,0.0001761999999999,53.2169,200.3762,68.9111,291.2069,7.0894e-05,8.400000000000001e-06,0.0,0 STARLINK-3739,1 52266U 22041F   23021.66221289  .00000840  00000-0  70894-4 0  9998,2 52266  53.2169 200.3762 0001762  68.9111 291.2069 15.08835596 43029,6917.894,95.438,540.9780000000001,538.54,0.0
52266.0,STARLINK-3739,PAYLOAD,2023-01-22 20:30:31,15.08844774,0.0001773,53.218,195.0244,70.4213,289.6971,6.6515e-05,7.71e-06,0.0,0 STARLINK-3739,1 52266U 22041F   23022.85452885  .00000771  00000-0  66515-4 0  9996,2 52266  53.2180 195.0244 0001773  70.4213 289.6971 15.08844774 43201,6917.866,95.437,540.957,538.504,0.0
52266.0,STARLINK-3739,PAYLOAD,2023-01-23 10:49:00,15.08835822,0.0001737,53.2185,192.3491,75.6054,284.5131,8.6595e-05,1.09e-05,0.0,0 STARLINK-3739,1 52266U 22041F   23023.45069448  .00001090  00000-0  86595-4 0  9997,2 52266  53.2185 192.3491 0001737  75.6054 284.5131 15.08835822 43295,6917.893,95.438,540.96,538.557,0.0
52266.0,STARLINK-3739,PAYLOAD,2023-01-24 18:36:42,15.08846134,0.0001602,53.2178,186.4009,79.4933,280.624,8.293299999999999e-05,1.032e-05,0.0,0 STARLINK-3739,1 52266U 22041F   23024.77548776  .00001032  00000-0  82933-4 0  9997,2 52266  53.2178 186.4009 0001602  79.4933 280.6240 15.08846134 43493,6917.861999999999,95.437,540.835,538.618,0.0
52266.0,STARLINK-3739,PAYLOAD,2023-01-25 13:41:20,15.08831122,0.000131,53.2185,182.8318,86.0411,274.0731,8.3149e-05,1.035e-05,0.0,0 STARLINK-3739,1 52266U 22041F   23025.57037652  .00001035  00000-0  83149-4 0  9995,2 52266  53.2185 182.8318 0001310  86.0411 274.0731 15.08831122 42396,6917.908,95.438,540.679,538.866,0.0
52266.0,STARLINK-3739,PAYLOAD,2023-01-25 18:27:29,15.08839442,0.0001691,53.2171,181.9412,82.3426,277.7758,3.4652e-05,2.63e-06,0.0,0 STARLINK-3739,1 52266U 22041F   23025.76909380  .00000263  00000-0  34652-4 0  9999,2 52266  53.2171 181.9412 0001691  82.3426 277.7758 15.08839442 43644,6917.882,95.438,540.9169999999999,538.577,0.0
52266.0,STARLINK-3739,PAYLOAD,2023-01-26 13:32:07,15.08841931,0.0001574,53.2173,178.3729,83.4703,276.6468,7.7053e-05,9.39e-06,0.0,0 STARLINK-3739,1 52266U 22041F   23026.56397099  .00000939  00000-0  77053-4 0  9998,2 52266  53.2173 178.3729 0001574  83.4703 276.6468 15.08841931 42547,6917.874,95.437,540.828,538.651,0.0
52266.0,STARLINK-3739,PAYLOAD,2023-01-26 21:29:02,15.08852824,0.0001515,53.2177,176.8841,84.6125,275.504,0.00010137,1.326e-05,0.0,0 STARLINK-3739,1 52266U 22041F   23026.89516227  .00001326  00000-0  10137-3 0  9990,2 52266  53.2177 176.8841 0001515  84.6125 275.5040 15.08852824 43813,6917.840999999999,95.437,540.754,538.658,0.0
52266.0,STARLINK-3739,PAYLOAD,2023-01-27 13:22:54,15.08833007,0.0001476999999999,53.2179,173.9119,86.8753,273.2408,5.9351e-05,6.57e-06,0.0,0 STARLINK-3739,1 52266U 22041F   23027.55757876  .00000657  00000-0  59351-4 0  9999,2 52266  53.2179 173.9119 0001477  86.8753 273.2408 15.08833007 43915,6917.901999999999,95.438,540.789,538.745,0.0
52266.0,STARLINK-3739,PAYLOAD,2023-01-27 16:33:40,15.08837497,0.0001495,53.2179,173.3171,85.6074,274.5088,6.7453e-05,7.86e-06,0.0,0 STARLINK-3739,1 52266U 22041F   23027.69005691  .00000786  00000-0  67453-4 0  9990,2 52266  53.2179 173.3171 0001495  85.6074 274.5088 15.08837497 42712,6917.888000000001,95.438,540.7869999999999,538.719,0.0
52266.0,STARLINK-3739,PAYLOAD,2023-01-28 13:13:41,15.08840236,0.0001457,53.2181,169.4509,88.058,272.0579,2.8226e-05,1.61e-06,0.0,0 STARLINK-3739,1 52266U 22041F   23028.55117821  .00000161  00000-0  28226-4 0  9997,2 52266  53.2181 169.4509 0001457  88.0580 272.0579 15.08840236 42840,6917.88,95.438,540.753,538.737,0.0
52266.0,STARLINK-3739,PAYLOAD,2023-01-28 19:35:13,15.08844608,0.0001462,53.2175,168.2611,85.72,274.3959,7.4724e-05,9.02e-06,0.0,0 STARLINK-3739,1 52266U 22041F   23028.81613347  .00000902  00000-0  74724-4 0  9997,2 52266  53.2175 168.2611 0001462  85.7200 274.3959 15.08844608 44108,6917.866,95.437,540.743,538.72,0.0
52266.0,STARLINK-3739,PAYLOAD,2023-01-29 01:56:46,15.08831654,5.39e-05,53.217,167.0739,132.9478,227.1559,-0.00017861,-3.128e-05,0.0,0 STARLINK-3739,1 52266U 22041F   23029.08109454 -.00003128  00000-0 -17861-3 0  9999,2 52266  53.2170 167.0739 0000539 132.9478 227.1559 15.08831654 44140,6917.906,95.438,540.144,539.398,0.0
52266.0,STARLINK-3739,PAYLOAD,2023-01-29 16:15:15,15.08839104,0.0001378,53.2174,164.3975,97.2081,262.9068,9.2446e-05,1.184e-05,0.0,0 STARLINK-3739,1 52266U 22041F   23029.67725889  .00001184  00000-0  92446-4 0  9991,2 52266  53.2174 164.3975 0001378  97.2081 262.9068 15.08839104 43016,6917.883,95.438,540.701,538.795,0.0
52266.0,STARLINK-3739,PAYLOAD,2023-01-30 01:47:33,15.08841067,0.0001203,53.2161,162.6123,92.3667,267.7463,0.00013092,1.796e-05,0.0,0 STARLINK-3739,1 52266U 22041F   23030.07469818  .00001796  00000-0  13092-3 0  9992,2 52266  53.2161 162.6123 0001203  92.3667 267.7463 15.08841067 44295,6917.877,95.437,540.574,538.91,0.0
52266.0,STARLINK-3739,PAYLOAD,2023-01-30 09:44:29,15.08838025,0.000125,53.2158,161.1255,90.5529,269.5606,0.00010718,1.418e-05,0.0,0 STARLINK-3739,1 52266U 22041F   23030.40590110  .00001418  00000-0  10718-3 0  9992,2 52266  53.2158 161.1255 0001250  90.5529 269.5606 15.08838025 43120,6917.886,95.438,540.616,538.887,0.0
